{"fetched_at":"2026-03-29T02:12:04Z","count":15717,"tles":[{"name":"USA 99 (MILSTAR-1 1)","line1":"1 22988U 94009A   26087.32961538 -.00000210  00000+0  00000+0 0  9993","line2":"2 22988  17.4988  28.5814 0003958 324.3153 221.5262  1.00273320 32140","category":"Military"}]}